start=new Date('2021-12-22T00:00:00.000Z').valueOf();
sats=[{"DECAY_DATE":null,"OBJECT_NAME":"STARLINK-1301","REV_AT_EPOCH":"9807","MEAN_MOTION_DDOT":"0.0000000000000","PERIOD":"95.592","TLE_LINE1":"1 45361U 20019B   21355.87688701  .00000705  00000-0  66269-4 0  9997","OBJECT_TYPE":"PAYLOAD","REF_FRAME":"TEME","TIME_SYSTEM":"UTC","LAUNCH_DATE":"2020-03-18","BSTAR":"0.00006626900000","INCLINATION":"53.0537","RA_OF_ASC_NODE":"214.6178","CENTER_NAME":"EARTH","RCS_SIZE":"LARGE","MEAN_MOTION_DOT":"0.00000705","APOAPSIS":"548.998","COUNTRY_CODE":"US","CLASSIFICATION_TYPE":"U","FILE":"3246784","SEMIMAJOR_AXIS":"6925.351","ECCENTRICITY":"0.00025730","EPHEMERIS_TYPE":"0","ELEMENT_SET_NO":"999","NORAD_CAT_ID":"45361","PERIAPSIS":"545.434","OBJECT_ID":"2020-019B","MEAN_MOTION":"15.06399288","ARG_OF_PERICENTER":"78.9066","GP_ID":"192177062","MEAN_ELEMENT_THEORY":"SGP4","EPOCH":"2021-12-21T21:02:43.037664","TLE_LINE2":"2 45361  53.0537 214.6178 0002573  78.9066 281.2212 15.06399288 98079","SITE":"AFETR","MEAN_ANOMALY":"281.2212"},{"RCS_SIZE":"LARGE","RA_OF_ASC_NODE":"234.4116","CENTER_NAME":"EARTH","APOAPSIS":"548.970","MEAN_MOTION_DOT":"-0.00000907","BSTAR":"-0.00004200200000","INCLINATION":"53.0531","TIME_SYSTEM":"UTC","LAUNCH_DATE":"2020-03-18","TLE_LINE1":"1 45362U 20019C   21355.92296295 -.00000907  00000-0 -42002-4 0  9992","MEAN_MOTION_DDOT":"0.0000000000000","PERIOD":"95.592","OBJECT_TYPE":"PAYLOAD","REF_FRAME":"TEME","DECAY_DATE":null,"OBJECT_NAME":"STARLINK-1306","REV_AT_EPOCH":"9779","EPOCH":"2021-12-21T22:09:03.998880","MEAN_ELEMENT_THEORY":"SGP4","ARG_OF_PERICENTER":"59.7741","GP_ID":"192177315","MEAN_ANOMALY":"300.3497","TLE_LINE2":"2 45362  53.0531 234.4116 0002518  59.7741 300.3497 15.06395915 97791","SITE":"AFETR","ELEMENT_SET_NO":"999","EPHEMERIS_TYPE":"0","OBJECT_ID":"2020-019C","MEAN_MOTION":"15.06395915","NORAD_CAT_ID":"45362","PERIAPSIS":"545.482","FILE":"3246784","SEMIMAJOR_AXIS":"6925.361","CLASSIFICATION_TYPE":"U","ECCENTRICITY":"0.00025180","COUNTRY_CODE":"US"},{"ECCENTRICITY":"0.00021740","CLASSIFICATION_TYPE":"U","FILE":"3246784","SEMIMAJOR_AXIS":"6925.367","COUNTRY_CODE":"US","TLE_LINE2":"2 45364  53.0540 204.5850 0002174  79.0510 281.0723 15.06393951 98205","SITE":"AFETR","MEAN_ANOMALY":"281.0723","ARG_OF_PERICENTER":"79.0510","GP_ID":"192175564","EPOCH":"2021-12-21T21:14:40.471296","MEAN_ELEMENT_THEORY":"SGP4","NORAD_CAT_ID":"45364","PERIAPSIS":"545.727","OBJECT_ID":"2020-019E","MEAN_MOTION":"15.06393951","EPHEMERIS_TYPE":"0","ELEMENT_SET_NO":"999","OBJECT_TYPE":"PAYLOAD","REF_FRAME":"TEME","MEAN_MOTION_DDOT":"0.0000000000000","PERIOD":"95.593","TLE_LINE1":"1 45364U 20019E   21355.88519064  .00000270  00000-0  37048-4 0  9996","OBJECT_NAME":"STARLINK-1313","REV_AT_EPOCH":"9820","DECAY_DATE":null,"MEAN_MOTION_DOT":"0.00000270","APOAPSIS":"548.738","RA_OF_ASC_NODE":"204.5850","CENTER_NAME":"EARTH","RCS_SIZE":"LARGE","TIME_SYSTEM":"UTC","LAUNCH_DATE":"2020-03-18","BSTAR":"0.00003704800000","INCLINATION":"53.0540"},{"COUNTRY_CODE":"US","ECCENTRICITY":"0.00022000","CLASSIFICATION_TYPE":"U","SEMIMAJOR_AXIS":"6927.849","FILE":"3246784","PERIAPSIS":"548.190","NORAD_CAT_ID":"45365","MEAN_MOTION":"15.05584582","OBJECT_ID":"2020-019F","EPHEMERIS_TYPE":"0","ELEMENT_SET_NO":"999","SITE":"AFETR","TLE_LINE2":"2 45365  52.9999 214.3898 0002200  83.0154 277.1084 15.05584582 98041","MEAN_ANOMALY":"277.1084","GP_ID":"192175814","ARG_OF_PERICENTER":"83.0154","EPOCH":"2021-12-21T22:19:06.618144","MEAN_ELEMENT_THEORY":"SGP4","REV_AT_EPOCH":"9804","OBJECT_NAME":"STARLINK-1317","DECAY_DATE":null,"REF_FRAME":"TEME","OBJECT_TYPE":"PAYLOAD","PERIOD":"95.644","MEAN_MOTION_DDOT":"0.0000000000000","TLE_LINE1":"1 45365U 20019F   21355.92993771  .00000523  00000-0  55108-4 0  9991","LAUNCH_DATE":"2020-03-18","TIME_SYSTEM":"UTC","INCLINATION":"52.9999","BSTAR":"0.00005510800000","MEAN_MOTION_DOT":"0.00000523","APOAPSIS":"551.238","CENTER_NAME":"EARTH","RA_OF_ASC_NODE":"214.3898","RCS_SIZE":"LARGE"},{"COUNTRY_CODE":"US","SEMIMAJOR_AXIS":"6925.342","FILE":"3246784","CLASSIFICATION_TYPE":"U","ECCENTRICITY":"0.00024200","ELEMENT_SET_NO":"999","EPHEMERIS_TYPE":"0","MEAN_MOTION":"15.06402157","OBJECT_ID":"2020-019G","PERIAPSIS":"545.531","NORAD_CAT_ID":"45366","EPOCH":"2021-12-21T21:47:49.518528","MEAN_ELEMENT_THEORY":"SGP4","GP_ID":"192176563","ARG_OF_PERICENTER":"72.4440","MEAN_ANOMALY":"287.6814","SITE":"AFETR","TLE_LINE2":"2 45366  53.0527 234.4718 0002420  72.4440 287.6814 15.06402157 97807","DECAY_DATE":null,"REV_AT_EPOCH":"9780","OBJECT_NAME":"STARLINK-1262","TLE_LINE1":"1 45366U 20019G   21355.90821202 -.00000467  00000-0 -12453-4 0  9994","PERIOD":"95.592","MEAN_MOTION_DDOT":"0.0000000000000","REF_FRAME":"TEME","OBJECT_TYPE":"PAYLOAD","INCLINATION":"53.0527","BSTAR":"-0.00001245300000","LAUNCH_DATE":"2020-03-18","TIME_SYSTEM":"UTC","RCS_SIZE":"LARGE","CENTER_NAME":"EARTH","RA_OF_ASC_NODE":"234.4718","APOAPSIS":"548.883","MEAN_MOTION_DOT":"-0.00000467"},{"INCLINATION":"53.0529","BSTAR":"-0.00014362000000","LAUNCH_DATE":"2020-03-18","TIME_SYSTEM":"UTC","APOAPSIS":"548.898","MEAN_MOTION_DOT":"-0.00002420","RCS_SIZE":"LARGE","CENTER_NAME":"EARTH","RA_OF_ASC_NODE":"234.3897","REV_AT_EPOCH":"9780","OBJECT_NAME":"STARLINK-1273","DECAY_DATE":null,"REF_FRAME":"TEME","OBJECT_TYPE":"PAYLOAD","TLE_LINE1":"1 45367U 20019H   21355.93033395 -.00002420  00000-0 -14362-3 0  9997","PERIOD":"95.592","MEAN_MOTION_DDOT":"0.0000000000000","MEAN_MOTION":"15.06398552","OBJECT_ID":"2020-019H","PERIAPSIS":"545.538","NORAD_CAT_ID":"45367","ELEMENT_SET_NO":"999","EPHEMERIS_TYPE":"0","MEAN_ANOMALY":"287.0565","SITE":"AFETR","TLE_LINE2":"2 45367  53.0529 234.3897 0002426  73.0690 287.0565 15.06398552 97807","EPOCH":"2021-12-21T22:19:40.853280","MEAN_ELEMENT_THEORY":"SGP4","GP_ID":"192176816","ARG_OF_PERICENTER":"73.0690","COUNTRY_CODE":"US","ECCENTRICITY":"0.00024260","SEMIMAJOR_AXIS":"6925.353","FILE":"3246784","CLASSIFICATION_TYPE":"U"},{"REV_AT_EPOCH":"9780","OBJECT_NAME":"STARLINK-1276","DECAY_DATE":null,"REF_FRAME":"TEME","OBJECT_TYPE":"PAYLOAD","TLE_LINE1":"1 45368U 20019J   21355.90084179  .00000227  00000-0  34156-4 0  9996","PERIOD":"95.592","MEAN_MOTION_DDOT":"0.0000000000000","INCLINATION":"53.0538","BSTAR":"0.00003415600000","LAUNCH_DATE":"2020-03-18","TIME_SYSTEM":"UTC","APOAPSIS":"549.397","MEAN_MOTION_DOT":"0.00000227","RCS_SIZE":"LARGE","CENTER_NAME":"EARTH","RA_OF_ASC_NODE":"234.5084","COUNTRY_CODE":"US","ECCENTRICITY":"0.00031620","SEMIMAJOR_AXIS":"6925.342","FILE":"3246784","CLASSIFICATION_TYPE":"U","MEAN_MOTION":"15.06402139","OBJECT_ID":"2020-019J","PERIAPSIS":"545.017","NORAD_CAT_ID":"45368","ELEMENT_SET_NO":"999","EPHEMERIS_TYPE":"0","MEAN_ANOMALY":"287.7905","SITE":"AFETR","TLE_LINE2":"2 45368  53.0538 234.5084 0003162  72.3429 287.7905 15.06402139 97800","MEAN_ELEMENT_THEORY":"SGP4","EPOCH":"2021-12-21T21:37:12.730656","GP_ID":"192176064","ARG_OF_PERICENTER":"72.3429"},{"REF_FRAME":"TEME","OBJECT_TYPE":"PAYLOAD","TLE_LINE1":"1 45369U 20019K   21355.89989772 -.00000438  00000-0 -10505-4 0  9996","PERIOD":"95.592","MEAN_MOTION_DDOT":"0.0000000000000","REV_AT_EPOCH":"9780","OBJECT_NAME":"STARLINK-1277","DECAY_DATE":null,"APOAPSIS":"548.722","MEAN_MOTION_DOT":"-0.00000438","RCS_SIZE":"LARGE","CENTER_NAME":"EARTH","RA_OF_ASC_NODE":"234.5216","INCLINATION":"53.0543","BSTAR":"-0.00001050500000","LAUNCH_DATE":"2020-03-18","TIME_SYSTEM":"UTC","ECCENTRICITY":"0.00021840","SEMIMAJOR_AXIS":"6925.344","FILE":"3246784","CLASSIFICATION_TYPE":"U","COUNTRY_CODE":"US","MEAN_ANOMALY":"283.7720","SITE":"AFETR","TLE_LINE2":"2 45369  53.0543 234.5216 0002184  76.3512 283.7720 15.06401365 97805","MEAN_ELEMENT_THEORY":"SGP4","EPOCH":"2021-12-21T21:35:51.163008","GP_ID":"192176314","ARG_OF_PERICENTER":"76.3512","MEAN_MOTION":"15.06401365","OBJECT_ID":"2020-019K","PERIAPSIS":"545.697","NORAD_CAT_ID":"45369","ELEMENT_SET_NO":"999","EPHEMERIS_TYPE":"0"},{"RCS_SIZE":"LARGE","CENTER_NAME":"EARTH","RA_OF_ASC_NODE":"234.5518","APOAPSIS":"548.851","MEAN_MOTION_DOT":"-0.00000728","INCLINATION":"53.0535","BSTAR":"-0.00002992200000","LAUNCH_DATE":"2020-03-18","TIME_SYSTEM":"UTC","TLE_LINE1":"1 45370U 20019L   21355.88978843 -.00000728  00000-0 -29922-4 0  9999","PERIOD":"95.592","MEAN_MOTION_DDOT":"0.0000000000000","REF_FRAME":"TEME","OBJECT_TYPE":"PAYLOAD","DECAY_DATE":null,"REV_AT_EPOCH":"9780","OBJECT_NAME":"STARLINK-1281","EPOCH":"2021-12-21T21:21:17.720352","MEAN_ELEMENT_THEORY":"SGP4","GP_ID":"192177063","ARG_OF_PERICENTER":"63.6418","MEAN_ANOMALY":"296.4815","TLE_LINE2":"2 45370  53.0535 234.5518 0002374  63.6418 296.4815 15.06402203 97806","SITE":"AFETR","ELEMENT_SET_NO":"999","EPHEMERIS_TYPE":"0","MEAN_MOTION":"15.06402203","OBJECT_ID":"2020-019L","PERIAPSIS":"545.563","NORAD_CAT_ID":"45370","SEMIMAJOR_AXIS":"6925.342","FILE":"3246784","CLASSIFICATION_TYPE":"U","ECCENTRICITY":"0.00023740","COUNTRY_CODE":"US"},{"EPOCH":"2021-12-21T22:03:44.511552","MEAN_ELEMENT_THEORY":"SGP4","ARG_OF_PERICENTER":"67.4553","GP_ID":"192177316","MEAN_ANOMALY":"292.6720","TLE_LINE2":"2 45371  53.0516 234.4209 0002683  67.4553 292.6720 15.06406704 97800","SITE":"AFETR","ELEMENT_SET_NO":"999","EPHEMERIS_TYPE":"0","OBJECT_ID":"2020-019M","MEAN_MOTION":"15.06406704","NORAD_CAT_ID":"45371","PERIAPSIS":"545.335","FILE":"3246784","SEMIMAJOR_AXIS":"6925.328","CLASSIFICATION_TYPE":"U","ECCENTRICITY":"0.00026830","COUNTRY_CODE":"US","RCS_SIZE":"LARGE","RA_OF_ASC_NODE":"234.4209","CENTER_NAME":"EARTH","APOAPSIS":"549.051","MEAN_MOTION_DOT":"-0.00001914","BSTAR":"-0.00010956000000","INCLINATION":"53.0516","TIME_SYSTEM":"UTC","LAUNCH_DATE":"2020-03-18","TLE_LINE1":"1 45371U 20019M   21355.91926518 -.00001914  00000-0 -10956-3 0  9990","MEAN_MOTION_DDOT":"0.0000000000000","PERIOD":"95.592","OBJECT_TYPE":"PAYLOAD","REF_FRAME":"TEME","DECAY_DATE":null,"OBJECT_NAME":"STARLINK-1287","REV_AT_EPOCH":"9780"}];
